[{"OBJECT_NAME":"STARLINK-32544","OBJECT_ID":"2024-207F","EPOCH":"2026-03-09T22:50:03.132960","MEAN_MOTION":15.27604471,"ECCENTRICITY":0.00012267,"INCLINATION":43.0027,"RA_OF_ASC_NODE":280.129,"ARG_OF_PERICENTER":305.5012,"MEAN_ANOMALY":54.5725,"EPHEMERIS_TYPE":0,"CLASSIFICATION_TYPE":"U","NORAD_CAT_ID":61917,"ELEMENT_SET_NO":999,"REV_AT_EPOCH":7476,"BSTAR":0.0015001223,"MEAN_MOTION_DOT":0.0004128,"MEAN_MOTION_DDOT":0},{"OBJECT_NAME":"239ALFEROV (RS61S)","OBJECT_ID":"2025-155F","EPOCH":"2026-03-09T21:46:33.382848","MEAN_MOTION":15.29933217,"ECCENTRICITY":0.00084878,"INCLINATION":97.4469,"RA_OF_ASC_NODE":37.6373,"ARG_OF_PERICENTER":151.5904,"MEAN_ANOMALY":208.58,"EPHEMERIS_TYPE":0,"CLASSIFICATION_TYPE":"U","NORAD_CAT_ID":64881,"ELEMENT_SET_NO":999,"REV_AT_EPOCH":6561,"BSTAR":0.00067233359,"MEAN_MOTION_DOT":0.00019457,"MEAN_MOTION_DDOT":0}]
